{
  "type": "FeatureCollection",
  "features": [
    {
      "type": "Feature",
      "properties": {
        "norad_id": 64902,
        "name": "CO3D 2",
        "group": "resource",
        "lat": 50.28743559809809,
        "lon": -108.43947380405972,
        "alt_km": 500.2093401498423,
        "timestamp": "2025-12-12T05:47:28.430035+00:00",
        "meta_object_name": "CO3D 2",
        "meta_object_id": "2025-156D",
        "meta_epoch": "2025-12-11T19:44:49.576992",
        "meta_mean_motion": 15.20205199,
        "meta_eccentricity": 9.831e-05,
        "meta_inclination": 97.4346,
        "meta_ra_of_asc_node": 62.1026,
        "meta_arg_of_pericenter": 82.2785,
        "meta_mean_anomaly": 277.8562,
        "meta_ephemeris_type": 0,
        "meta_classification_type": "U",
        "meta_norad_cat_id": 64902,
        "meta_element_set_no": 999,
        "meta_rev_at_epoch": 2106,
        "meta_bstar": 0.00010250119,
        "meta_mean_motion_dot": 2.152e-05,
        "meta_mean_motion_ddot": 0,
        "tle_line1": "1 64902U 25156D   25345.82279603  .00002152  00000+0  10250-3 0  9996",
        "tle_line2": "2 64902  97.4346  62.1026 0000983  82.2785 277.8562 15.20205199 21065"
      },
      "geometry": {
        "type": "Point",
        "coordinates": [
          -108.43947380405972,
          50.28743559809809
        ]
      }
    },
    {
      "type": "Feature",
      "properties": {
        "norad_id": 64903,
        "name": "CO3D 1",
        "group": "resource",
        "lat": 49.42947906294137,
        "lon": -108.51890817418374,
        "alt_km": 492.90993055419676,
        "timestamp": "2025-12-12T05:47:28.430045+00:00",
        "meta_object_name": "CO3D 1",
        "meta_object_id": "2025-156E",
        "meta_epoch": "2025-12-11T15:00:21.413376",
        "meta_mean_motion": 15.2097193,
        "meta_eccentricity": 0.00688067,
        "meta_inclination": 97.3738,
        "meta_ra_of_asc_node": 62.1786,
        "meta_arg_of_pericenter": 215.787,
        "meta_mean_anomaly": 143.8746,
        "meta_ephemeris_type": 0,
        "meta_classification_type": "U",
        "meta_norad_cat_id": 64903,
        "meta_element_set_no": 999,
        "meta_rev_at_epoch": 2103,
        "meta_bstar": 0.00049386558,
        "meta_mean_motion_dot": 0.00011603,
        "meta_mean_motion_ddot": 0,
        "tle_line1": "1 64903U 25156E   25345.62524784  .00011603  00000+0  49387-3 0  9992",
        "tle_line2": "2 64903  97.3738  62.1786 0068806 215.7870 143.8746 15.20971930 21035"
      },
      "geometry": {
        "type": "Point",
        "coordinates": [
          -108.51890817418374,
          49.42947906294137
        ]
      }
    },
    {
      "type": "Feature",
      "properties": {
        "norad_id": 66514,
        "name": "SENTINEL-6B",
        "group": "resource",
        "lat": -39.80466177556509,
        "lon": 141.72341563176698,
        "alt_km": 1336.9053856726296,
        "timestamp": "2025-12-12T05:47:28.430056+00:00",
        "meta_object_name": "SENTINEL-6B",
        "meta_object_id": "2025-264A",
        "meta_epoch": "2025-12-11T20:39:27.129024",
        "meta_mean_motion": 12.81479622,
        "meta_eccentricity": 0.00078421,
        "meta_inclination": 66.0381,
        "meta_ra_of_asc_node": 164.2643,
        "meta_arg_of_pericenter": 269.1464,
        "meta_mean_anomaly": 90.8653,
        "meta_ephemeris_type": 0,
        "meta_classification_type": "U",
        "meta_norad_cat_id": 66514,
        "meta_element_set_no": 999,
        "meta_rev_at_epoch": 317,
        "meta_bstar": -0.0052959586,
        "meta_mean_motion_dot": -1.291e-05,
        "meta_mean_motion_ddot": 0,
        "tle_line1": "1 66514U 25264A   25345.86073066 -.00001291  00000+0 -52960-2 0  9994",
        "tle_line2": "2 66514  66.0381 164.2643 0007842 269.1464  90.8653 12.81479622  3171"
      },
      "geometry": {
        "type": "Point",
        "coordinates": [
          141.72341563176698,
          -39.80466177556509
        ]
      }
    }
  ]
}